[{"OBJECT_NAME":"STARLINK-32075","OBJECT_ID":"2024-136S","EPOCH":"2025-08-15T12:50:37.506912","MEAN_MOTION":15.30175308,"ECCENTRICITY":0.0001526,"INCLINATION":53.1602,"RA_OF_ASC_NODE":313.0749,"ARG_OF_PERICENTER":113.5573,"MEAN_ANOMALY":246.5589,"EPHEMERIS_TYPE":0,"CLASSIFICATION_TYPE":"U","NORAD_CAT_ID":60345,"ELEMENT_SET_NO":999,"REV_AT_EPOCH":5810,"BSTAR":-1.6142e-5,"MEAN_MOTION_DOT":-8.37e-6,"MEAN_MOTION_DDOT":0},{"OBJECT_NAME":"STARLINK-32082","OBJECT_ID":"2024-136T","EPOCH":"2025-08-15T12:52:08.447232","MEAN_MOTION":15.3018048,"ECCENTRICITY":8.77e-5,"INCLINATION":53.158,"RA_OF_ASC_NODE":313.0763,"ARG_OF_PERICENTER":73.7274,"MEAN_ANOMALY":286.3824,"EPHEMERIS_TYPE":0,"CLASSIFICATION_TYPE":"U","NORAD_CAT_ID":60346,"ELEMENT_SET_NO":999,"REV_AT_EPOCH":5810,"BSTAR":-3.926e-5,"MEAN_MOTION_DOT":-1.521e-5,"MEAN_MOTION_DDOT":0},{"OBJECT_NAME":"STARLINK-32084","OBJECT_ID":"2024-136U","EPOCH":"2025-08-15T12:47:35.064672","MEAN_MOTION":15.30183723,"ECCENTRICITY":0.0001048,"INCLINATION":53.1595,"RA_OF_ASC_NODE":313.0538,"ARG_OF_PERICENTER":67.4264,"MEAN_ANOMALY":292.6847,"EPHEMERIS_TYPE":0,"CLASSIFICATION_TYPE":"U","NORAD_CAT_ID":60347,"ELEMENT_SET_NO":999,"REV_AT_EPOCH":5810,"BSTAR":-5.0089e-5,"MEAN_MOTION_DOT":-1.841e-5,"MEAN_MOTION_DDOT":0},{"OBJECT_NAME":"STARLINK-32081","OBJECT_ID":"2024-136V","EPOCH":"2025-08-15T12:43:00.742080","MEAN_MOTION":15.30187498,"ECCENTRICITY":0.0001057,"INCLINATION":53.1609,"RA_OF_ASC_NODE":313.0382,"ARG_OF_PERICENTER":83.6349,"MEAN_ANOMALY":276.4772,"EPHEMERIS_TYPE":0,"CLASSIFICATION_TYPE":"U","NORAD_CAT_ID":60348,"ELEMENT_SET_NO":999,"REV_AT_EPOCH":5810,"BSTAR":2.3962e-7,"MEAN_MOTION_DOT":-3.52e-6,"MEAN_MOTION_DDOT":0},{"OBJECT_NAME":"STARLINK-32181","OBJECT_ID":"2024-136W","EPOCH":"2025-08-15T12:29:19.905792","MEAN_MOTION":15.30187807,"ECCENTRICITY":0.000128,"INCLINATION":53.16,"RA_OF_ASC_NODE":312.9779,"ARG_OF_PERICENTER":83.4915,"MEAN_ANOMALY":276.6232,"EPHEMERIS_TYPE":0,"CLASSIFICATION_TYPE":"U","NORAD_CAT_ID":60349,"ELEMENT_SET_NO":999,"REV_AT_EPOCH":5810,"BSTAR":1.813e-5,"MEAN_MOTION_DOT":1.78e-6,"MEAN_MOTION_DDOT":0},{"OBJECT_NAME":"STARLINK-32076","OBJECT_ID":"2024-136X","EPOCH":"2025-08-15T12:33:54.377856","MEAN_MOTION":15.30178298,"ECCENTRICITY":0.0001178,"INCLINATION":53.1602,"RA_OF_ASC_NODE":312.996,"ARG_OF_PERICENTER":78.7019,"MEAN_ANOMALY":281.4114,"EPHEMERIS_TYPE":0,"CLASSIFICATION_TYPE":"U","NORAD_CAT_ID":60350,"ELEMENT_SET_NO":999,"REV_AT_EPOCH":5810,"BSTAR":-4.0458e-5,"MEAN_MOTION_DOT":-1.556e-5,"MEAN_MOTION_DDOT":0},{"OBJECT_NAME":"STARLINK-32097","OBJECT_ID":"2024-136Y","EPOCH":"2025-08-15T12:24:47.031264","MEAN_MOTION":15.30180988,"ECCENTRICITY":0.0001183,"INCLINATION":53.1609,"RA_OF_ASC_NODE":312.9565,"ARG_OF_PERICENTER":87.3353,"MEAN_ANOMALY":272.7783,"EPHEMERIS_TYPE":0,"CLASSIFICATION_TYPE":"U","NORAD_CAT_ID":60351,"ELEMENT_SET_NO":999,"REV_AT_EPOCH":5810,"BSTAR":-2.1571e-5,"MEAN_MOTION_DOT":-9.97e-6,"MEAN_MOTION_DDOT":0},{"OBJECT_NAME":"STARLINK-32285","OBJECT_ID":"2024-138A","EPOCH":"2025-08-15T04:09:01.507104","MEAN_MOTION":15.30194736,"ECCENTRICITY":0.000129,"INCLINATION":53.1584,"RA_OF_ASC_NODE":188.5225,"ARG_OF_PERICENTER":82.5075,"MEAN_ANOMALY":277.6072,"EPHEMERIS_TYPE":0,"CLASSIFICATION_TYPE":"U","NORAD_CAT_ID":60355,"ELEMENT_SET_NO":999,"REV_AT_EPOCH":5901,"BSTAR":2.25e-5,"MEAN_MOTION_DOT":3.07e-6,"MEAN_MOTION_DDOT":0},{"OBJECT_NAME":"STARLINK-32278","OBJECT_ID":"2024-138B","EPOCH":"2025-08-15T04:04:36.978816","MEAN_MOTION":15.30205621,"ECCENTRICITY":0.0001294,"INCLINATION":53.1595,"RA_OF_ASC_NODE":189.2066,"ARG_OF_PERICENTER":65.6669,"MEAN_ANOMALY":294.4467,"EPHEMERIS_TYPE":0,"CLASSIFICATION_TYPE":"U","NORAD_CAT_ID":60356,"ELEMENT_SET_NO":999,"REV_AT_EPOCH":5900,"BSTAR":0.0002176,"MEAN_MOTION_DOT":6.092e-5,"MEAN_MOTION_DDOT":0},{"OBJECT_NAME":"STARLINK-32287","OBJECT_ID":"2024-138D","EPOCH":"2025-08-15T04:00:04.616640","MEAN_MOTION":15.30186808,"ECCENTRICITY":0.0001379,"INCLINATION":53.1595,"RA_OF_ASC_NODE":189.1972,"ARG_OF_PERICENTER":81.1476,"MEAN_ANOMALY":278.9681,"EPHEMERIS_TYPE":0,"CLASSIFICATION_TYPE":"U","NORAD_CAT_ID":60358,"ELEMENT_SET_NO":999,"REV_AT_EPOCH":5900,"BSTAR":-1.0207e-5,"MEAN_MOTION_DOT":-6.61e-6,"MEAN_MOTION_DDOT":0},{"OBJECT_NAME":"STARLINK-32290","OBJECT_ID":"2024-138E","EPOCH":"2025-08-15T04:03:06.968160","MEAN_MOTION":15.30188492,"ECCENTRICITY":0.0001288,"INCLINATION":53.1591,"RA_OF_ASC_NODE":189.2093,"ARG_OF_PERICENTER":83.3104,"MEAN_ANOMALY":276.8043,"EPHEMERIS_TYPE":0,"CLASSIFICATION_TYPE":"U","NORAD_CAT_ID":60359,"ELEMENT_SET_NO":999,"REV_AT_EPOCH":4003,"BSTAR":2.0927e-6,"MEAN_MOTION_DOT":-2.97e-6,"MEAN_MOTION_DDOT":0},{"OBJECT_NAME":"STARLINK-32275","OBJECT_ID":"2024-138F","EPOCH":"2025-08-15T14:18:56.397312","MEAN_MOTION":15.30188989,"ECCENTRICITY":0.0001209,"INCLINATION":53.1591,"RA_OF_ASC_NODE":186.8982,"ARG_OF_PERICENTER":100.5374,"MEAN_ANOMALY":259.5763,"EPHEMERIS_TYPE":0,"CLASSIFICATION_TYPE":"U","NORAD_CAT_ID":60360,"ELEMENT_SET_NO":999,"REV_AT_EPOCH":5907,"BSTAR":1.2121e-5,"MEAN_MOTION_DOT":0,"MEAN_MOTION_DDOT":0},{"OBJECT_NAME":"STARLINK-32227","OBJECT_ID":"2024-138G","EPOCH":"2025-08-15T03:53:59.796960","MEAN_MOTION":15.30182306,"ECCENTRICITY":0.000101,"INCLINATION":53.1608,"RA_OF_ASC_NODE":189.1602,"ARG_OF_PERICENTER":64.2191,"MEAN_ANOMALY":295.8914,"EPHEMERIS_TYPE":0,"CLASSIFICATION_TYPE":"U","NORAD_CAT_ID":60361,"ELEMENT_SET_NO":999,"REV_AT_EPOCH":5901,"BSTAR":3.0003e-5,"MEAN_MOTION_DOT":5.29e-6,"MEAN_MOTION_DDOT":0},{"OBJECT_NAME":"STARLINK-32256","OBJECT_ID":"2024-138H","EPOCH":"2025-08-15T04:01:35.493888","MEAN_MOTION":15.30189445,"ECCENTRICITY":0.0001297,"INCLINATION":53.1596,"RA_OF_ASC_NODE":189.1916,"ARG_OF_PERICENTER":78.1311,"MEAN_ANOMALY":281.9836,"EPHEMERIS_TYPE":0,"CLASSIFICATION_TYPE":"U","NORAD_CAT_ID":60362,"ELEMENT_SET_NO":999,"REV_AT_EPOCH":5899,"BSTAR":7.1223e-6,"MEAN_MOTION_DOT":-1.48e-6,"MEAN_MOTION_DDOT":0},{"OBJECT_NAME":"STARLINK-32267","OBJECT_ID":"2024-138J","EPOCH":"2025-08-15T06:54:29.894400","MEAN_MOTION":15.30192245,"ECCENTRICITY":0.0001467,"INCLINATION":53.1598,"RA_OF_ASC_NODE":188.5251,"ARG_OF_PERICENTER":95.7085,"MEAN_ANOMALY":264.4083,"EPHEMERIS_TYPE":0,"CLASSIFICATION_TYPE":"U","NORAD_CAT_ID":60363,"ELEMENT_SET_NO":999,"REV_AT_EPOCH":5902,"BSTAR":3.1585e-5,"MEAN_MOTION_DOT":5.76e-6,"MEAN_MOTION_DDOT":0},{"OBJECT_NAME":"STARLINK-32270","OBJECT_ID":"2024-138K","EPOCH":"2025-08-15T05:08:18.105216","MEAN_MOTION":15.30183334,"ECCENTRICITY":0.0001456,"INCLINATION":53.1594,"RA_OF_ASC_NODE":188.7792,"ARG_OF_PERICENTER":93.976,"MEAN_ANOMALY":266.1407,"EPHEMERIS_TYPE":0,"CLASSIFICATION_TYPE":"U","NORAD_CAT_ID":60364,"ELEMENT_SET_NO":999,"REV_AT_EPOCH":5891,"BSTAR":-2.1439e-5,"MEAN_MOTION_DOT":-9.94e-6,"MEAN_MOTION_DDOT":0},{"OBJECT_NAME":"STARLINK-32188","OBJECT_ID":"2024-138L","EPOCH":"2025-08-15T14:23:29.820480","MEAN_MOTION":15.30187936,"ECCENTRICITY":0.0001308,"INCLINATION":53.1595,"RA_OF_ASC_NODE":186.9167,"ARG_OF_PERICENTER":94.5676,"MEAN_ANOMALY":265.5474,"EPHEMERIS_TYPE":0,"CLASSIFICATION_TYPE":"U","NORAD_CAT_ID":60365,"ELEMENT_SET_NO":999,"REV_AT_EPOCH":5907,"BSTAR":-1.3398e-5,"MEAN_MOTION_DOT":-7.56e-6,"MEAN_MOTION_DDOT":0}]
