STARLINK-32075          
1 60345U 24136S   25227.53515633 -.00000837  00000+0 -16142-4 0  9990
2 60345  53.1602 313.0749 0001526 113.5573 246.5589 15.30175308 58109
STARLINK-32082          
1 60346U 24136T   25227.53620888 -.00001521  00000+0 -39260-4 0  9997
2 60346  53.1580 313.0763 0000877  73.7274 286.3824 15.30180480 58105
STARLINK-32084          
1 60347U 24136U   25227.53304473 -.00001841  00000+0 -50089-4 0  9994
2 60347  53.1595 313.0538 0001048  67.4264 292.6847 15.30183723 58100
STARLINK-32081          
1 60348U 24136V   25227.52986970 -.00000352  00000+0  23962-6 0  9999
2 60348  53.1609 313.0382 0001057  83.6349 276.4772 15.30187498 58108
STARLINK-32181          
1 60349U 24136W   25227.52036928  .00000178  00000+0  18130-4 0  9993
2 60349  53.1600 312.9779 0001280  83.4915 276.6232 15.30187807 58100
STARLINK-32076          
1 60350U 24136X   25227.52354604 -.00001556  00000+0 -40458-4 0  9990
2 60350  53.1602 312.9960 0001178  78.7019 281.4114 15.30178298 58101
STARLINK-32097          
1 60351U 24136Y   25227.51721101 -.00000997  00000+0 -21571-4 0  9993
2 60351  53.1609 312.9565 0001183  87.3353 272.7783 15.30180988 58107
STARLINK-32285          
1 60355U 24138A   25227.17293411  .00000307  00000+0  22500-4 0  9995
2 60355  53.1584 188.5225 0001290  82.5075 277.6072 15.30194736 59012
STARLINK-32278          
1 60356U 24138B   25227.16987244  .00006092  00000+0  21760-3 0  9992
2 60356  53.1595 189.2066 0001294  65.6669 294.4467 15.30205621 59001
STARLINK-32287          
1 60358U 24138D   25227.16672010 -.00000661  00000+0 -10207-4 0  9999
2 60358  53.1595 189.1972 0001379  81.1476 278.9681 15.30186808 59001
STARLINK-32290          
1 60359U 24138E   25227.16883065 -.00000297  00000+0  20927-5 0  9999
2 60359  53.1591 189.2093 0001288  83.3104 276.8043 15.30188492 40037
STARLINK-32275          
1 60360U 24138F   25227.59648608  .00000000  00000+0  12121-4 0  9997
2 60360  53.1591 186.8982 0001209 100.5374 259.5763 15.30188989 59075
STARLINK-32227          
1 60361U 24138G   25227.16249765  .00000529  00000+0  30003-4 0  9997
2 60361  53.1608 189.1602 0001010  64.2191 295.8914 15.30182306 59015
STARLINK-32256          
1 60362U 24138H   25227.16777192 -.00000148  00000+0  71223-5 0  9996
2 60362  53.1596 189.1916 0001297  78.1311 281.9836 15.30189445 58991
STARLINK-32267          
1 60363U 24138J   25227.28784600  .00000576  00000+0  31585-4 0  9992
2 60363  53.1598 188.5251 0001467  95.7085 264.4083 15.30192245 59028
STARLINK-32270          
1 60364U 24138K   25227.21409844 -.00000994  00000+0 -21439-4 0  9993
2 60364  53.1594 188.7792 0001456  93.9760 266.1407 15.30183334 58910
STARLINK-32188          
1 60365U 24138L   25227.59965070 -.00000756  00000+0 -13398-4 0  9994
2 60365  53.1595 186.9167 0001308  94.5676 265.5474 15.30187936 59074
